start=new Date('2022-02-10T00:00:00.000Z').valueOf();
sats=[{"BSTAR":"0.00014035000000","OBJECT_TYPE":"PAYLOAD","CENTER_NAME":"EARTH","ARG_OF_PERICENTER":"75.3307","COUNTRY_CODE":"US","SITE":"AFETR","TLE_LINE1":"1 47661U 21012AT  22040.57028323  .00001809  00000-0  14035-3 0  9992","MEAN_ANOMALY":"284.7863","RCS_SIZE":"LARGE","TIME_SYSTEM":"UTC","ELEMENT_SET_NO":"999","GP_ID":"195641038","ECCENTRICITY":"0.00016320","OBJECT_NAME":"STARLINK-2051","CLASSIFICATION_TYPE":"U","DECAY_DATE":null,"EPOCH":"2022-02-09T13:41:12.471072","REV_AT_EPOCH":"5580","INCLINATION":"53.0544","REF_FRAME":"TEME","OBJECT_ID":"2021-012AT","MEAN_MOTION_DDOT":"0.0000000000000","TLE_LINE2":"2 47661  53.0544 256.5301 0001632  75.3307 284.7863 15.06390679 55808","EPHEMERIS_TYPE":"0","PERIOD":"95.593","MEAN_ELEMENT_THEORY":"SGP4","PERIAPSIS":"546.112","MEAN_MOTION_DOT":"0.00001809","LAUNCH_DATE":"2021-02-16","FILE":"3295989","NORAD_CAT_ID":"47661","SEMIMAJOR_AXIS":"6925.377","RA_OF_ASC_NODE":"256.5301","APOAPSIS":"548.372","MEAN_MOTION":"15.06390679"},{"REF_FRAME":"TEME","OBJECT_ID":"2021-012AU","REV_AT_EPOCH":"5533","INCLINATION":"53.0540","EPOCH":"2022-02-09T17:59:56.541408","DECAY_DATE":null,"MEAN_MOTION":"15.06384929","APOAPSIS":"548.416","NORAD_CAT_ID":"47662","SEMIMAJOR_AXIS":"6925.395","RA_OF_ASC_NODE":"255.7323","LAUNCH_DATE":"2021-02-16","FILE":"3296221","PERIAPSIS":"546.104","MEAN_MOTION_DOT":"0.00002021","EPHEMERIS_TYPE":"0","PERIOD":"95.593","MEAN_ELEMENT_THEORY":"SGP4","MEAN_MOTION_DDOT":"0.0000000000000","TLE_LINE2":"2 47662  53.0540 255.7323 0001669  67.6134 292.5032 15.06384929 55336","ELEMENT_SET_NO":"999","RCS_SIZE":"LARGE","TIME_SYSTEM":"UTC","SITE":"AFETR","TLE_LINE1":"1 47662U 21012AU  22040.74995997  .00002021  00000-0  15463-3 0  9995","MEAN_ANOMALY":"292.5032","COUNTRY_CODE":"US","ARG_OF_PERICENTER":"67.6134","CENTER_NAME":"EARTH","BSTAR":"0.00015463000000","OBJECT_TYPE":"PAYLOAD","OBJECT_NAME":"STARLINK-2052","CLASSIFICATION_TYPE":"U","ECCENTRICITY":"0.00016690","GP_ID":"195648124"},{"GP_ID":"195639536","OBJECT_NAME":"STARLINK-2053","CLASSIFICATION_TYPE":"U","ECCENTRICITY":"0.00014250","COUNTRY_CODE":"US","ARG_OF_PERICENTER":"73.0375","CENTER_NAME":"EARTH","OBJECT_TYPE":"PAYLOAD","BSTAR":"0.00020334000000","ELEMENT_SET_NO":"999","TIME_SYSTEM":"UTC","RCS_SIZE":"LARGE","MEAN_ANOMALY":"287.0770","TLE_LINE1":"1 47663U 21012AV  22040.58407137  .00002748  00000-0  20334-3 0  9991","SITE":"AFETR","FILE":"3295989","LAUNCH_DATE":"2021-02-16","MEAN_MOTION_DOT":"0.00002748","PERIAPSIS":"546.239","PERIOD":"95.592","MEAN_ELEMENT_THEORY":"SGP4","EPHEMERIS_TYPE":"0","TLE_LINE2":"2 47663  53.0567 176.4768 0001425  73.0375 287.0770 15.06395857 56944","MEAN_MOTION_DDOT":"0.0000000000000","APOAPSIS":"548.213","MEAN_MOTION":"15.06395857","SEMIMAJOR_AXIS":"6925.361","NORAD_CAT_ID":"47663","RA_OF_ASC_NODE":"176.4768","DECAY_DATE":null,"REF_FRAME":"TEME","OBJECT_ID":"2021-012AV","INCLINATION":"53.0567","REV_AT_EPOCH":"5694","EPOCH":"2022-02-09T14:01:03.766368"},{"COUNTRY_CODE":"US","ARG_OF_PERICENTER":"64.1520","CENTER_NAME":"EARTH","BSTAR":"0.00012732000000","OBJECT_TYPE":"PAYLOAD","ELEMENT_SET_NO":"999","RCS_SIZE":"LARGE","TIME_SYSTEM":"UTC","TLE_LINE1":"1 47664U 21012AW  22040.75089529  .00001615  00000-0  12732-3 0  9997","SITE":"AFETR","MEAN_ANOMALY":"295.9631","GP_ID":"195647707","CLASSIFICATION_TYPE":"U","OBJECT_NAME":"STARLINK-2054","ECCENTRICITY":"0.00015730","DECAY_DATE":null,"OBJECT_ID":"2021-012AW","REF_FRAME":"TEME","REV_AT_EPOCH":"5533","INCLINATION":"53.0535","EPOCH":"2022-02-09T18:01:17.353056","LAUNCH_DATE":"2021-02-16","FILE":"3296221","PERIAPSIS":"546.146","MEAN_MOTION_DOT":"0.00001615","EPHEMERIS_TYPE":"0","PERIOD":"95.593","MEAN_ELEMENT_THEORY":"SGP4","MEAN_MOTION_DDOT":"0.0000000000000","TLE_LINE2":"2 47664  53.0535 255.7325 0001573  64.1520 295.9631 15.06392812 55331","APOAPSIS":"548.325","MEAN_MOTION":"15.06392812","NORAD_CAT_ID":"47664","SEMIMAJOR_AXIS":"6925.371","RA_OF_ASC_NODE":"255.7325"},{"DECAY_DATE":null,"REF_FRAME":"TEME","OBJECT_ID":"2021-012AX","EPOCH":"2022-02-09T14:14:59.364096","REV_AT_EPOCH":"5589","INCLINATION":"53.0542","PERIAPSIS":"545.980","MEAN_MOTION_DOT":"0.00002978","LAUNCH_DATE":"2021-02-16","FILE":"3295989","MEAN_MOTION_DDOT":"0.0000000000000","TLE_LINE2":"2 47665  53.0542 251.4233 0001776 155.0435 205.0640 15.06401302 55899","EPHEMERIS_TYPE":"0","MEAN_ELEMENT_THEORY":"SGP4","PERIOD":"95.592","MEAN_MOTION":"15.06401302","APOAPSIS":"548.440","SEMIMAJOR_AXIS":"6925.345","NORAD_CAT_ID":"47665","RA_OF_ASC_NODE":"251.4233","ARG_OF_PERICENTER":"155.0435","COUNTRY_CODE":"US","BSTAR":"0.00021870000000","OBJECT_TYPE":"PAYLOAD","CENTER_NAME":"EARTH","ELEMENT_SET_NO":"999","TLE_LINE1":"1 47665U 21012AX  22040.59374264  .00002978  00000-0  21870-3 0  9999","SITE":"AFETR","MEAN_ANOMALY":"205.0640","RCS_SIZE":"LARGE","TIME_SYSTEM":"UTC","GP_ID":"195640538","ECCENTRICITY":"0.00017760","OBJECT_NAME":"STARLINK-2056","CLASSIFICATION_TYPE":"U"},{"DECAY_DATE":null,"OBJECT_ID":"2021-012AY","REF_FRAME":"TEME","INCLINATION":"53.0537","REV_AT_EPOCH":"5589","EPOCH":"2022-02-09T13:27:14.988960","FILE":"3295989","LAUNCH_DATE":"2021-02-16","MEAN_MOTION_DOT":"0.00004797","PERIAPSIS":"546.076","PERIOD":"95.592","MEAN_ELEMENT_THEORY":"SGP4","EPHEMERIS_TYPE":"0","TLE_LINE2":"2 47666  53.0537 251.5818 0001652  71.8651 288.2518 15.06397881 55895","MEAN_MOTION_DDOT":"0.0000000000000","APOAPSIS":"548.364","MEAN_MOTION":"15.06397881","NORAD_CAT_ID":"47666","SEMIMAJOR_AXIS":"6925.355","RA_OF_ASC_NODE":"251.5818","COUNTRY_CODE":"US","ARG_OF_PERICENTER":"71.8651","CENTER_NAME":"EARTH","OBJECT_TYPE":"PAYLOAD","BSTAR":"0.00034074000000","ELEMENT_SET_NO":"999","TIME_SYSTEM":"UTC","RCS_SIZE":"MEDIUM","MEAN_ANOMALY":"288.2518","TLE_LINE1":"1 47666U 21012AY  22040.56059015  .00004797  00000-0  34074-3 0  9992","SITE":"AFETR","GP_ID":"195639787","CLASSIFICATION_TYPE":"U","OBJECT_NAME":"STARLINK-2057","ECCENTRICITY":"0.00016520"},{"GP_ID":"195640037","CLASSIFICATION_TYPE":"U","OBJECT_NAME":"STARLINK-2058","ECCENTRICITY":"0.00017460","CENTER_NAME":"EARTH","BSTAR":"0.00088639000000","OBJECT_TYPE":"PAYLOAD","COUNTRY_CODE":"US","ARG_OF_PERICENTER":"59.8204","RCS_SIZE":"LARGE","TIME_SYSTEM":"UTC","TLE_LINE1":"1 47667U 21012AZ  22040.38414968  .00012952  00000-0  88639-3 0  9993","SITE":"AFETR","MEAN_ANOMALY":"300.2958","ELEMENT_SET_NO":"999","EPHEMERIS_TYPE":"0","MEAN_ELEMENT_THEORY":"SGP4","PERIOD":"95.591","MEAN_MOTION_DDOT":"0.0000000000000","TLE_LINE2":"2 47667  53.0535 277.3802 0001746  59.8204 300.2958 15.06418450 55492","LAUNCH_DATE":"2021-02-16","FILE":"3295989","PERIAPSIS":"545.948","MEAN_MOTION_DOT":"0.00012952","SEMIMAJOR_AXIS":"6925.292","NORAD_CAT_ID":"47667","RA_OF_ASC_NODE":"277.3802","APOAPSIS":"548.366","MEAN_MOTION":"15.06418450","DECAY_DATE":null,"REV_AT_EPOCH":"5549","INCLINATION":"53.0535","EPOCH":"2022-02-09T09:13:10.532352","OBJECT_ID":"2021-012AZ","REF_FRAME":"TEME"},{"ARG_OF_PERICENTER":"58.7385","COUNTRY_CODE":"US","OBJECT_TYPE":"PAYLOAD","BSTAR":"0.00018242000000","CENTER_NAME":"EARTH","ELEMENT_SET_NO":"999","MEAN_ANOMALY":"301.3763","TLE_LINE1":"1 47668U 21012BA  22040.55923247  .00002436  00000-0  18242-3 0  9997","SITE":"AFETR","TIME_SYSTEM":"UTC","RCS_SIZE":"LARGE","GP_ID":"195640288","ECCENTRICITY":"0.00016190","CLASSIFICATION_TYPE":"U","OBJECT_NAME":"STARLINK-2059","DECAY_DATE":null,"REF_FRAME":"TEME","OBJECT_ID":"2021-012BA","EPOCH":"2022-02-09T13:25:17.685408","INCLINATION":"53.0531","REV_AT_EPOCH":"5582","MEAN_MOTION_DOT":"0.00002436","PERIAPSIS":"546.121","FILE":"3295989","LAUNCH_DATE":"2021-02-16","TLE_LINE2":"2 47668  53.0531 256.5897 0001619  58.7385 301.3763 15.06390626 55826","MEAN_MOTION_DDOT":"0.0000000000000","PERIOD":"95.593","MEAN_ELEMENT_THEORY":"SGP4","EPHEMERIS_TYPE":"0","MEAN_MOTION":"15.06390626","APOAPSIS":"548.364","SEMIMAJOR_AXIS":"6925.377","RA_OF_ASC_NODE":"256.5897","NORAD_CAT_ID":"47668"},{"CLASSIFICATION_TYPE":"U","OBJECT_NAME":"STARLINK-2060","ECCENTRICITY":"0.00013160","GP_ID":"195641039","TIME_SYSTEM":"UTC","RCS_SIZE":"LARGE","MEAN_ANOMALY":"287.3983","TLE_LINE1":"1 47669U 21012BB  22040.55963652  .00000762  00000-0  70023-4 0  9998","SITE":"AFETR","ELEMENT_SET_NO":"999","CENTER_NAME":"EARTH","OBJECT_TYPE":"PAYLOAD","BSTAR":"0.00007002300000","COUNTRY_CODE":"US","ARG_OF_PERICENTER":"72.7150","RA_OF_ASC_NODE":"181.5812","SEMIMAJOR_AXIS":"6925.339","NORAD_CAT_ID":"47669","APOAPSIS":"548.115","MEAN_MOTION":"15.06403094","PERIOD":"95.592","MEAN_ELEMENT_THEORY":"SGP4","EPHEMERIS_TYPE":"0","TLE_LINE2":"2 47669  53.0555 181.5812 0001316  72.7150 287.3983 15.06403094 56841","MEAN_MOTION_DDOT":"0.0000000000000","FILE":"3295989","LAUNCH_DATE":"2021-02-16","MEAN_MOTION_DOT":"0.00000762","PERIAPSIS":"546.293","INCLINATION":"53.0555","REV_AT_EPOCH":"5684","EPOCH":"2022-02-09T13:25:52.595328","REF_FRAME":"TEME","OBJECT_ID":"2021-012BB","DECAY_DATE":null},{"REV_AT_EPOCH":"5581","INCLINATION":"53.0538","EPOCH":"2022-02-09T13:46:31.290528","REF_FRAME":"TEME","OBJECT_ID":"2021-012BC","DECAY_DATE":null,"SEMIMAJOR_AXIS":"6925.369","NORAD_CAT_ID":"47670","RA_OF_ASC_NODE":"256.5081","APOAPSIS":"548.225","MEAN_MOTION":"15.06393180","EPHEMERIS_TYPE":"0","PERIOD":"95.593","MEAN_ELEMENT_THEORY":"SGP4","MEAN_MOTION_DDOT":"0.0000000000000","TLE_LINE2":"2 47670  53.0538 256.5081 0001430   7.1580 352.9429 15.06393180 55815","LAUNCH_DATE":"2021-02-16","FILE":"3295989","PERIAPSIS":"546.244","MEAN_MOTION_DOT":"0.00005416","RCS_SIZE":"LARGE","TIME_SYSTEM":"UTC","SITE":"AFETR","TLE_LINE1":"1 47670U 21012BC  22040.57397327  .00005416  00000-0  38226-3 0  9991","MEAN_ANOMALY":"352.9429","ELEMENT_SET_NO":"999","CENTER_NAME":"EARTH","BSTAR":"0.00038226000000","OBJECT_TYPE":"PAYLOAD","COUNTRY_CODE":"US","ARG_OF_PERICENTER":"7.1580","CLASSIFICATION_TYPE":"U","OBJECT_NAME":"STARLINK-2062","ECCENTRICITY":"0.00014300","GP_ID":"195639287"}];
